ONEWEB-0201             
1 48241U 21031AH  23230.29885894 -.00000085  00000+0 -26376-3 0  9990
2 48241  87.9044 135.5251 0002065  75.4030 284.7329 13.14505689112558
ONEWEB-0207             
1 48242U 21031AJ  23229.66456366  .00000140  00000+0  34320-3 0  9996
2 48242  87.9045 135.6181 0001967  70.8510 289.2833 13.14505011112385
ONEWEB-0208             
1 48243U 21031AK  23230.70801677  .00000045  00000+0  85742-4 0  9992
2 48243  87.9039 135.4292 0002286  80.0224 280.1164 13.14503904112533
ONEWEB-0200             
1 48244U 21031AL  23229.98699489 -.00000424  00000+0 -11784-2 0  9993
2 48244  87.9038 135.5599 0002319  79.0398 281.0992 13.14501741112379
ONEWEB-0217             
1 48245U 21031AM  23229.69943357 -.00000531  00000+0 -14676-2 0  9990
2 48245  87.9040 135.6009 0002383  82.1963 277.9437 13.14501750112282
ONEWEB-0211             
1 48767U 21045A   23230.09644836  .00000305  00000+0  77699-3 0  9992
2 48767  87.8982 105.1030 0001892  82.5464 277.5881 13.15548885109584
ONEWEB-0223             
1 48768U 21045B   23230.87814100  .00000162  00000+0  39689-3 0  9990
2 48768  87.8982 104.9522 0002104  93.5037 266.6334 13.15547843109689
ONEWEB-0230             
1 48769U 21045C   23229.17740116 -.00000008  00000+0 -54118-4 0  9993
2 48769  87.9005 105.3512 0001916  80.8462 279.2885 13.15543873109693
ONEWEB-0237             
1 48770U 21045D   23230.15559007 -.00000017  00000+0 -80350-4 0  9999
2 48770  87.8985 105.0781 0001836 100.1309 260.0028 13.15549577109563
ONEWEB-0235             
1 48771U 21045E   23230.12813024 -.00000129  00000+0 -37656-3 0  9993
2 48771  87.8985 105.1153 0001848 110.5430 249.5898 13.15547117109544
ONEWEB-0242             
1 48772U 21045F   23230.19785101  .00000136  00000+0  32838-3 0  9998
2 48772  87.8982 105.0926 0001678  89.2854 270.8468 13.15549773109609
ONEWEB-0241             
1 48773U 21045G   23229.19643462  .00000186  00000+0  46027-3 0  9990
2 48773  87.8997 105.3102 0002218  91.1443 268.9942 13.15547659109383
ONEWEB-0243             
1 48774U 21045H   23230.14080537  .00000018  00000+0  12788-4 0  9998
2 48774  87.8979 105.0817 0001686  99.3745 260.7576 13.15547502109534
ONEWEB-0222             
1 48775U 21045J   23230.13024529 -.00002455  00000+0 -65550-2 0  9999
2 48775  87.8982 105.1205 0001494  90.8946 269.2355 13.15559530109563
ONEWEB-0244             
1 48776U 21045K   23230.22741717  .00000007  00000+0 -15587-4 0  9992
2 48776  87.8978 105.0855 0001541  88.6655 271.4652 13.15553602110149
ONEWEB-0247             
1 48777U 21045L   23230.22320050 -.00000003  00000+0 -43055-4 0  9994
2 48777  87.8991 105.0948 0001893 102.2413 257.8929 13.15547137109591
ONEWEB-0245             
1 48778U 21045M   23230.14290500 -.00000518  00000+0 -14101-2 0  9991
2 48778  87.8976 105.1291 0002159  84.8891 275.2486 13.15548867109557
ONEWEB-0229             
1 48779U 21045N   23229.60416366 -.00000699  00000+0 -18917-2 0  9990
2 48779  87.8977 105.2258 0001630  87.1958 272.9359 13.15549660109517
ONEWEB-0228             
1 48780U 21045P   23230.15031066 -.00000028  00000+0 -10873-3 0  9994
2 48780  87.8980 105.0979 0001701  85.5940 274.5385 13.15546450109503
ONEWEB-0232             
1 48781U 21045Q   23230.22107989 -.00001213  00000+0 -32555-2 0  9998
2 48781  87.8949 105.1723 0002145  80.4002 279.7371 13.15555848109821
ONEWEB-0231             
1 48782U 21045R   23230.12390332  .00000047  00000+0  90139-4 0  9990
2 48782  87.8993 105.1227 0001776  92.7863 267.3470 13.15548273109524
ONEWEB-0234             
1 48783U 21045S   23229.16051909  .00000052  00000+0  10336-3 0  9993
2 48783  87.8985 105.3016 0002123  79.0833 281.0536 13.15549847109520
ONEWEB-0238             
1 48784U 21045T   23230.08482160  .00000057  00000+0  11686-3 0  9998
2 48784  87.8984 105.1274 0001998  79.0006 281.1349 13.15550643109546
ONEWEB-0240             
1 48785U 21045U   23229.87883888  .00000237  00000+0  59542-3 0  9999
2 48785  87.8982 105.1429 0002177  91.6865 268.4514 13.15547204109530
ONEWEB-0246             
1 48786U 21045V   23230.02670958  .00000153  00000+0  37207-3 0  9992
2 48786  87.8983 105.1144 0001785  97.9587 262.1746 13.15551831109427
ONEWEB-0210             
1 48787U 21045W   23229.16473045  .00000065  00000+0  13733-3 0  9994
2 48787  87.8983 105.2953 0001216 106.0634 254.0630 13.15547259109365
ONEWEB-0214             
1 48788U 21045X   23230.16405645  .00000068  00000+0  14746-3 0  9996
2 48788  87.8979 105.0850 0001148 104.4768 255.6490 13.15547607109457
ONEWEB-0221             
1 48789U 21045Y   23230.09433286  .00000140  00000+0  33649-3 0  9995
2 48789  87.8984 105.1085 0001959  90.1552 269.9803 13.15549958109555
ONEWEB-0213             
1 48790U 21045Z   23229.62531862 -.00000007  00000+0 -51905-4 0  9993
2 48790  87.8985 105.2204 0001785  96.5580 263.5753 13.15546823109541
ONEWEB-0212             
1 48791U 21045AA  23230.06264429 -.00000071  00000+0 -22159-3 0  9995
2 48791  87.8983 105.1138 0001900  74.2283 285.9057 13.15546410109601
ONEWEB-0227             
1 48792U 21045AB  23230.20841216  .00000023  00000+0  28024-4 0  9990
2 48792  87.8986 105.0985 0002003  84.7320 275.4039 13.15550018109565
ONEWEB-0226             
1 48793U 21045AC  23230.12601499  .00000080  00000+0  17866-3 0  9993
2 48793  87.8984 105.1240 0001524 104.1650 255.9649 13.15548020109514
ONEWEB-0224             
1 48794U 21045AD  23230.62461203  .00000072  00000+0  15797-3 0  9998
2 48794  87.8995 105.0237 0002467  76.2807 283.8597 13.15546713109500
ONEWEB-0233             
1 48795U 21045AE  23230.08573434  .00000013  00000+0  88042-6 0  9990
2 48795  87.8934 105.2173 0001950  82.2174 277.9178 13.15549651109441
ONEWEB-0190             
1 48796U 21045AF  23230.08375374  .00000008  00000+0 -11579-4 0  9998
2 48796  87.8979 105.1302 0002110 116.8848 243.2498 13.15549539109520
ONEWEB-0236             
1 48797U 21045AG  23230.10067780  .00000281  00000+0  71356-3 0  9991
2 48797  87.8980 105.0986 0001870  82.1748 277.9594 13.15547488109416
ONEWEB-0248             
1 48798U 21045AH  23230.03727014  .00000163  00000+0  39950-3 0  9990
2 48798  87.8982 105.1263 0002452  97.2127 262.9282 13.15550845109568
ONEWEB-0225             
1 48799U 21045AJ  23230.21052017 -.00000012  00000+0 -65318-4 0  9998
2 48799  87.8977 105.1042 0001968 100.4573 259.6779 13.15548574109617
ONEWEB-0215             
1 48800U 21045AK  23230.02883847  .00000190  00000+0  47084-3 0  9997
2 48800  87.8983 105.1167 0002381 105.9579 254.1814 13.15548283109449
ONEWEB-0216             
1 48801U 21045AL  23229.20275112  .00000081  00000+0  18203-3 0  9996
2 48801  87.8984 105.3192 0001436  86.0484 274.0810 13.15551765109340
ONEWEB-0239             
1 48802U 21045AM  23230.11967898  .00000070  00000+0  15296-3 0  9995
2 48802  87.8986 105.0865 0002453 103.0573 257.0831 13.15549949109521
ONEWEB-0249             
1 48967U 21060A   23230.87344395  .00000389  00000+0  98475-3 0  9991
2 48967  87.9046  74.4428 0001664  87.1649 272.9672 13.16592040104934
ONEWEB-0250             
1 48968U 21060B   23229.81371371  .00000016  00000+0  87820-5 0  9999
2 48968  87.8977  74.6635 0001983  94.3281 265.8077 13.16593665104771
ONEWEB-0252             
1 48970U 21060D   23229.84114863 -.00000051  00000+0 -16729-3 0  9995
2 48970  87.8981  74.6638 0001563  89.2245 270.9065 13.16592481104846
ONEWEB-0253             
1 48971U 21060E   23230.51456749  .00005292  00000+0  13806-1 0  9995
2 48971  87.9015  74.6044 0001741 105.5631 254.5692 13.16570130104858
ONEWEB-0254             
1 48972U 21060F   23229.83904130 -.00000001  00000+0 -36195-4 0  9995
2 48972  87.8980  74.6531 0001865  97.2283 262.9060 13.16593004104764
ONEWEB-0255             
1 48973U 21060G   23230.86499474  .00000068  00000+0  14326-3 0  9993
2 48973  87.8973  74.4864 0001754  86.7058 273.4274 13.16594985104981
ONEWEB-0256             
1 48974U 21060H   23230.13034374  .00000016  00000+0  75073-5 0  9999
2 48974  87.8986  74.6353 0001470  84.0937 276.0361 13.16596585104853
ONEWEB-0257             
1 48975U 21060J   23230.84809169  .00000086  00000+0  19230-3 0  9998
2 48975  87.8963  74.4659 0001572  91.5732 268.5579 13.16591101104907
ONEWEB-0258             
1 48976U 21060K   23230.85023418  .00000013  00000+0 -79597-6 0  9991
2 48976  87.8971  74.4927 0001889  89.2842 270.8506 13.16592873104905
ONEWEB-0259             
1 48977U 21060L   23230.84386961 -.00000323  00000+0 -87985-3 0  9998
2 48977  87.8974  74.4779 0002130  90.3328 269.8047 13.16592689104943
ONEWEB-0260             
1 48978U 21060M   23230.53356175 -.00000914  00000+0 -24240-2 0  9999
2 48978  87.9018  74.5662 0001013  95.3772 264.7474 13.16595802104873
ONEWEB-0261             
1 48979U 21060N   23230.57578779  .00000396  00000+0  10019-2 0  9991
2 48979  87.9014  74.5030 0001480 109.6908 250.4383 13.16592528104959
ONEWEB-0262             
1 48980U 21060P   23230.86078411  .00000100  00000+0  22869-3 0  9993
2 48980  87.8982  74.4605 0002266  96.6064 263.5325 13.16598307104954
ONEWEB-0263             
1 48981U 21060Q   23230.13246440  .00000016  00000+0  70738-5 0  9999
2 48981  87.8985  74.6219 0002033 102.4570 257.6789 13.16593427104823
ONEWEB-0264             
1 48982U 21060R   23230.85336451  .00000063  00000+0  13175-3 0  9993
2 48982  87.8993  74.4757 0001823  89.4898 270.6442 13.16591174104919
ONEWEB-0266             
1 48984U 21060T   23229.81158430  .00000089  00000+0  19978-3 0  9993
2 48984  87.8985  74.6749 0001820  84.7222 275.4117 13.16591869104778
ONEWEB-0267             
1 48985U 21060U   23229.82215058 -.00000021  00000+0 -89704-4 0  9998
2 48985  87.8984  74.6737 0001600 103.6293 256.5016 13.16596713104771
ONEWEB-0268             
1 48986U 21060V   23230.85442926  .00000104  00000+0  23766-3 0  9995
2 48986  87.8980  74.4701 0001664  83.4121 276.7199 13.16598313105171
